STARLINK-2022           
1 47643U 21012Z   24214.83807106  .00002980  00000+0  21880-3 0  9996
2 47643  53.0539 157.1182 0001471  86.8344 273.2813 15.06413894191594
